STARLINK-35836          
1 66571U 25268Q   25330.66668981 -.01489879  65267-3 -34942-2 0  9992
2 66571  42.9979 217.8771 0001885 261.1598   3.3975 15.96085222  2081
STARLINK-35870          
1 66572U 25268R   25330.66668981 -.01496820  65893-3 -34919-2 0  9996
2 66572  42.9982 217.8734 0001912 258.0805   8.0407 15.96183412  2084
STARLINK-35650          
1 66573U 25268S   25330.66668981 -.01506164  66713-3 -34966-2 0  9994
2 66573  42.9980 217.8697 0001748 251.1668  16.3707 15.96274594  2086
STARLINK-35812          
1 66574U 25268T   25330.66668981 -.01509403  67027-3 -34901-2 0  9992
2 66574  42.9983 217.8666 0001981 259.1637   9.5783 15.96347305  2088
STARLINK-35810          
1 66575U 25268U   25330.66668981 -.01517177  67730-3 -34899-2 0  9997
2 66575  42.9983 217.8629 0001968 257.6949  12.5623 15.96443311  2083
STARLINK-35814          
1 66576U 25268V   25330.66668981 -.01526945  68599-3 -34947-2 0  9999
2 66576  42.9982 217.8591 0001968 259.2361  12.4903 15.96536543  2087
STARLINK-35815          
1 66577U 25268W   25330.66668981 -.01529990  68917-3 -34839-2 0  9997
2 66577  42.9982 217.8553 0001975 258.9682  14.2694 15.96629637  2080
STARLINK-35743          
1 66578U 25268X   25330.66668981 -.01540895  69880-3 -34941-2 0  9999
2 66578  42.9982 217.8523 0001971 261.3046  13.1399 15.96706932  2080
STARLINK-35868          
1 66579U 25268Y   25330.66668981 -.01544569  70258-3 -34835-2 0  9995
2 66579  42.9982 217.8482 0001961 258.9034  17.1382 15.96806008  2084
STARLINK-35872          
1 66580U 25268Z   25330.66668981 -.01547263  70537-3 -34757-2 0  9994
2 66580  42.9982 217.8452 0001995 257.2879  19.9101 15.96878481  2082
STARLINK-35744          
1 66581U 25268AA  25330.66668981 -.01547233  70584-3 -34627-2 0  9990
2 66581  42.9982 217.8420 0001981 258.2200  20.1348 15.96946037  2037
STARLINK-35746          
1 66582U 25268AB  25330.66668981 -.01556618  71450-3 -34645-2 0  9991
2 66582  42.9980 217.8381 0001968 258.8954  21.0518 15.97047788  2089
